{"type": "FeatureCollection", "features": [ {"type": "Feature", "properties": {"norad_id": 30110, "name": "FENGYUN 1C DEB", "group": "fengyun-1c-debris", "lat": 58.79853529432481, "lon": -67.67035542590251, "alt_km": 1173.5671069801901, "timestamp": "2025-12-14T16:47:40.957554+00:00", "meta": {"OBJECT_NAME": "FENGYUN 1C DEB", "OBJECT_ID": "1999-025RP", "EPOCH": "2025-12-13T13:39:21.454848", "MEAN_MOTION": 13.56224867, "ECCENTRICITY": 0.0267583, "INCLINATION": 98.9078, "RA_OF_ASC_NODE": 96.2987, "ARG_OF_PERICENTER": 350.9419, "MEAN_ANOMALY": 8.6946, "EPHEMERIS_TYPE": 0, "CLASSIFICATION_TYPE": "U", "NORAD_CAT_ID": 30110, "ELEMENT_SET_NO": 999, "REV_AT_EPOCH": 93526, "BSTAR": 0.00032642209, "MEAN_MOTION_DOT": 2.49e-06, "MEAN_MOTION_DDOT": 0}, "tle": {"line1": "1 30110U 99025RP  25347.56899832  .00000249  00000+0  32642-3 0  9995", "line2": "2 30110  98.9078  96.2987 0267583 350.9419   8.6946 13.56224867935263"}}, "geometry": {"type": "Point", "coordinates": [-67.67035542590251, 58.79853529432481]}}, {"type": "Feature", "properties": {"norad_id": 30112, "name": "FENGYUN 1C DEB", "group": "fengyun-1c-debris", "lat": 50.16436826755134, "lon": -48.5535121647651, "alt_km": 719.9109773845876, "timestamp": "2025-12-14T16:47:40.957564+00:00", "meta": {"OBJECT_NAME": "FENGYUN 1C DEB", "OBJECT_ID": "1999-025RR", "EPOCH": "2025-12-13T21:59:05.341920", "MEAN_MOTION": 14.22226449, "ECCENTRICITY": 0.02017668, "INCLINATION": 99.2814, "RA_OF_ASC_NODE": 321.9259, "ARG_OF_PERICENTER": 104.3134, "MEAN_ANOMALY": 258.0537, "EPHEMERIS_TYPE": 0, "CLASSIFICATION_TYPE": "U", "NORAD_CAT_ID": 30112, "ELEMENT_SET_NO": 999, "REV_AT_EPOCH": 97599, "BSTAR": 0.00067816836, "MEAN_MOTION_DOT": 1.803e-05, "MEAN_MOTION_DDOT": 0}, "tle": {"line1": "1 30112U 99025RR  25347.91603405  .00001803  00000+0  67817-3 0  9994", "line2": "2 30112  99.2814 321.9259 0201766 104.3134 258.0537 14.22226449975996"}}, "geometry": {"type": "Point", "coordinates": [-48.5535121647651, 50.16436826755134]}}, {"type": "Feature", "properties": {"norad_id": 30113, "name": "FENGYUN 1C DEB", "group": "fengyun-1c-debris", "lat": 79.27922977342551, "lon": 78.21953235374694, "alt_km": 738.1122816419684, "timestamp": "2025-12-14T16:47:40.957574+00:00", "meta": {"OBJECT_NAME": "FENGYUN 1C DEB", "OBJECT_ID": "1999-025RS", "EPOCH": "2025-12-13T14:01:38.190720", "MEAN_MOTION": 14.45344412, "ECCENTRICITY": 0.0040679, "INCLINATION": 99.0378, "RA_OF_ASC_NODE": 199.8206, "ARG_OF_PERICENTER": 359.5788, "MEAN_ANOMALY": 55.7874, "EPHEMERIS_TYPE": 0, "CLASSIFICATION_TYPE": "U", "NORAD_CAT_ID": 30113, "ELEMENT_SET_NO": 999, "REV_AT_EPOCH": 97921, "BSTAR": 0.0022321762, "MEAN_MOTION_DOT": 7.882e-05, "MEAN_MOTION_DDOT": 0}, "tle": {"line1": "1 30113U 99025RS  25347.58446980  .00007882  00000+0  22322-2 0  9995", "line2": "2 30113  99.0378 199.8206 0040679 359.5788  55.7874 14.45344412979218"}}, "geometry": {"type": "Point", "coordinates": [78.21953235374694, 79.27922977342551]}}, {"type": "Feature", "properties": {"norad_id": 30114, "name": "FENGYUN 1C DEB", "group": "fengyun-1c-debris", "lat": -9.328501327845673, "lon": -7.54518503835087, "alt_km": 897.1901002442846, "timestamp": "2025-12-14T16:47:40.957584+00:00", "meta": {"OBJECT_NAME": "FENGYUN 1C DEB", "OBJECT_ID": "1999-025RT", "EPOCH": "2025-12-14T00:03:44.641728", "MEAN_MOTION": 14.09653409, "ECCENTRICITY": 0.00822231, "INCLINATION": 98.7467, "RA_OF_ASC_NODE": 350.3283, "ARG_OF_PERICENTER": 116.2479, "MEAN_ANOMALY": 299.1752, "EPHEMERIS_TYPE": 0, "CLASSIFICATION_TYPE": "U", "NORAD_CAT_ID": 30114, "ELEMENT_SET_NO": 999, "REV_AT_EPOCH": 97172, "BSTAR": 0.00023289757, "MEAN_MOTION_DOT": 3.79e-06, "MEAN_MOTION_DDOT": 0}, "tle": {"line1": "1 30114U 99025RT  25348.00260002  .00000379  00000+0  23290-3 0  9993", "line2": "2 30114  98.7467 350.3283 0082223 116.2479 299.1752 14.09653409971725"}}, "geometry": {"type": "Point", "coordinates": [-7.54518503835087, -9.328501327845673]}}, {"type": "Feature", "properties": {"norad_id": 30115, "name": "FENGYUN 1C DEB", "group": "fengyun-1c-debris", "lat": 45.20867103540594, "lon": -155.2726390271408, "alt_km": 812.4090495102519, "timestamp": "2025-12-14T16:47:40.957595+00:00", "meta": {"OBJECT_NAME": "FENGYUN 1C DEB", "OBJECT_ID": "1999-025RU", "EPOCH": "2025-12-13T23:34:38.606592", "MEAN_MOTION": 14.19783689, "ECCENTRICITY": 0.00677267, "INCLINATION": 98.6232, "RA_OF_ASC_NODE": 15.2361, "ARG_OF_PERICENTER": 57.2467, "MEAN_ANOMALY": 11.3793, "EPHEMERIS_TYPE": 0, "CLASSIFICATION_TYPE": "U", "NORAD_CAT_ID": 30115, "ELEMENT_SET_NO": 999, "REV_AT_EPOCH": 97346, "BSTAR": 0.0011610819, "MEAN_MOTION_DOT": 2.475e-05, "MEAN_MOTION_DDOT": 0}, "tle": {"line1": "1 30115U 99025RU  25347.98239128  .00002475  00000+0  11611-2 0  9997", "line2": "2 30115  98.6232  15.2361 0067726  57.2467  11.3793 14.19783689973468"}}, "geometry": {"type": "Point", "coordinates": [-155.2726390271408, 45.20867103540594]}}, {"type": "Feature", "properties": {"norad_id": 30116, "name": "FENGYUN 1C DEB", "group": "fengyun-1c-debris", "lat": 53.58452331783575, "lon": -107.14325903162542, "alt_km": 801.5297152792691, "timestamp": "2025-12-14T16:47:40.957605+00:00", "meta": {"OBJECT_NAME": "FENGYUN 1C DEB", "OBJECT_ID": "1999-025RV", "EPOCH": "2025-12-13T10:14:45.436992", "MEAN_MOTION": 14.2929202, "ECCENTRICITY": 0.00205193, "INCLINATION": 99.3972, "RA_OF_ASC_NODE": 58.5123, "ARG_OF_PERICENTER": 340.1385, "MEAN_ANOMALY": 79.1687, "EPHEMERIS_TYPE": 0, "CLASSIFICATION_TYPE": "U", "NORAD_CAT_ID": 30116, "ELEMENT_SET_NO": 999, "REV_AT_EPOCH": 97519, "BSTAR": 0.0022137656, "MEAN_MOTION_DOT": 5.599e-05, "MEAN_MOTION_DDOT": 0}, "tle": {"line1": "1 30116U 99025RV  25347.42691478  .00005599  00000+0  22138-2 0  9993", "line2": "2 30116  99.3972  58.5123 0020519 340.1385  79.1687 14.29292020975197"}}, "geometry": {"type": "Point", "coordinates": [-107.14325903162542, 53.58452331783575]}}, {"type": "Feature", "properties": {"norad_id": 30117, "name": "FENGYUN 1C DEB", "group": "fengyun-1c-debris", "lat": -68.84577353811387, "lon": 133.48977897251459, "alt_km": 794.39865763525, "timestamp": "2025-12-14T16:47:40.957615+00:00", "meta": {"OBJECT_NAME": "FENGYUN 1C DEB", "OBJECT_ID": "1999-025RW", "EPOCH": "2025-12-13T22:48:48.718368", "MEAN_MOTION": 14.07163297, "ECCENTRICITY": 0.01636957, "INCLINATION": 98.804, "RA_OF_ASC_NODE": 336.3695, "ARG_OF_PERICENTER": 205.7416, "MEAN_ANOMALY": 210.285, "EPHEMERIS_TYPE": 0, "CLASSIFICATION_TYPE": "U", "NORAD_CAT_ID": 30117, "ELEMENT_SET_NO": 999, "REV_AT_EPOCH": 97006, "BSTAR": 0.00011883472, "MEAN_MOTION_DOT": 1.81e-06, "MEAN_MOTION_DDOT": 0}, "tle": {"line1": "1 30117U 99025RW  25347.95056387  .00000181  00000+0  11883-3 0  9994", "line2": "2 30117  98.8040 336.3695 0163695 205.7416 210.2850 14.07163297970063"}}, "geometry": {"type": "Point", "coordinates": [133.48977897251459, -68.84577353811387]}}, {"type": "Feature", "properties": {"norad_id": 30118, "name": "FENGYUN 1C DEB", "group": "fengyun-1c-debris", "lat": -33.06109223728629, "lon": -1.830123850692989, "alt_km": 879.2369586944442, "timestamp": "2025-12-14T16:47:40.957625+00:00", "meta": {"OBJECT_NAME": "FENGYUN 1C DEB", "OBJECT_ID": "1999-025RX", "EPOCH": "2025-12-14T00:07:11.618112", "MEAN_MOTION": 14.05123871, "ECCENTRICITY": 0.00853366, "INCLINATION": 98.8034, "RA_OF_ASC_NODE": 351.7062, "ARG_OF_PERICENTER": 56.3088, "MEAN_ANOMALY": 358.6835, "EPHEMERIS_TYPE": 0, "CLASSIFICATION_TYPE": "U", "NORAD_CAT_ID": 30118, "ELEMENT_SET_NO": 999, "REV_AT_EPOCH": 96949, "BSTAR": 9.3669402e-05, "MEAN_MOTION_DOT": 1.14e-06, "MEAN_MOTION_DDOT": 0}, "tle": {"line1": "1 30118U 99025RX  25348.00499558  .00000114  00000+0  93669-4 0  9992", "line2": "2 30118  98.8034 351.7062 0085336  56.3088 358.6835 14.05123871969493"}}, "geometry": {"type": "Point", "coordinates": [-1.830123850692989, -33.06109223728629]}}, {"type": "Feature", "properties": {"norad_id": 30119, "name": "FENGYUN 1C DEB", "group": "fengyun-1c-debris", "lat": 26.772018952918003, "lon": -21.550532308745296, "alt_km": 831.9261052558104, "timestamp": "2025-12-14T16:47:40.957635+00:00", "meta": {"OBJECT_NAME": "FENGYUN 1C DEB", "OBJECT_ID": "1999-025RY", "EPOCH": "2025-12-13T22:13:59.829024", "MEAN_MOTION": 14.22251587, "ECCENTRICITY": 0.01310281, "INCLINATION": 97.9204, "RA_OF_ASC_NODE": 341.7817, "ARG_OF_PERICENTER": 289.3896, "MEAN_ANOMALY": 98.7048, "EPHEMERIS_TYPE": 0, "CLASSIFICATION_TYPE": "U", "NORAD_CAT_ID": 30119, "ELEMENT_SET_NO": 999, "REV_AT_EPOCH": 97197, "BSTAR": 0.0019340052, "MEAN_MOTION_DOT": 4.65e-05, "MEAN_MOTION_DDOT": 0}, "tle": {"line1": "1 30119U 99025RY  25347.92638691  .00004650  00000+0  19340-2 0  9997", "line2": "2 30119  97.9204 341.7817 0131028 289.3896  98.7048 14.22251587971974"}}, "geometry": {"type": "Point", "coordinates": [-21.550532308745296, 26.772018952918003]}}, {"type": "Feature", "properties": {"norad_id": 30120, "name": "FENGYUN 1C DEB", "group": "fengyun-1c-debris", "lat": 23.950309251686914, "lon": 66.65255225253328, "alt_km": 844.6551843331681, "timestamp": "2025-12-14T16:47:40.957645+00:00", "meta": {"OBJECT_NAME": "FENGYUN 1C DEB", "OBJECT_ID": "1999-025RZ", "EPOCH": "2025-12-12T18:10:03.216288", "MEAN_MOTION": 14.27606033, "ECCENTRICITY": 0.00635945, "INCLINATION": 98.852, "RA_OF_ASC_NODE": 68.6545, "ARG_OF_PERICENTER": 211.4897, "MEAN_ANOMALY": 273.6137, "EPHEMERIS_TYPE": 0, "CLASSIFICATION_TYPE": "U", "NORAD_CAT_ID": 30120, "ELEMENT_SET_NO": 999, "REV_AT_EPOCH": 97371, "BSTAR": 0.0029496065, "MEAN_MOTION_DOT": 7.381e-05, "MEAN_MOTION_DDOT": 0}, "tle": {"line1": "1 30120U 99025RZ  25346.75698167  .00007381  00000+0  29496-2 0  9990", "line2": "2 30120  98.8520  68.6545 0063594 211.4897 273.6137 14.27606033973711"}}, "geometry": {"type": "Point", "coordinates": [66.65255225253328, 23.950309251686914]}}]}